GLOBALSTAR M067         
1 32263U 07048A   25354.05062421 -.00000065  00000+0  24154-3 0  9994
2 32263  51.9701 212.0752 0001980  48.5765 104.2171 12.40682961832551
GLOBALSTAR M070         
1 32264U 07048B   25354.22857079 -.00000081  00000+0  12490-3 0  9993
2 32264  51.9759 281.7414 0000522  62.8950  86.3864 12.62327495837162
GLOBALSTAR M066         
1 32265U 07048C   25353.85665747 -.00000086  00000+0  72845-4 0  9997
2 32265  51.9572 212.7193 0005649  36.1829 337.7100 12.30383484838159
GLOBALSTAR M068         
1 32266U 07048D   25354.53578544 -.00000094  00000+0  53727-4 0  9999
2 32266  51.9885  94.1963 0001570 157.8993 215.9387 12.62835580841103
GLOBALSTAR M079         
1 37188U 10054A   25354.09052307 -.00000086  00000+0  10108-3 0  9999
2 37188  52.0069 293.8690 0000713  31.2994 342.4928 12.62261594699933
GLOBALSTAR M074         
1 37189U 10054B   25354.22444439 -.00000090  00000+0  79235-4 0  9998
2 37189  52.0029 292.7539 0000791  57.1922  85.0664 12.62264171700556
GLOBALSTAR M076         
1 37190U 10054C   25354.57418708 -.00000089  00000+0  82867-4 0  9991
2 37190  52.0042 291.8782 0000889  47.4563 123.8169 12.62268249700319
GLOBALSTAR M077         
1 37191U 10054D   25354.27784484 -.00000089  00000+0 -19921-3 0  9997
2 37191  51.9979 273.7438 0001260  35.6615 135.4772 11.68176465700238
